[{"OBJECT_NAME":"JILIN-1 GAOFEN 03D12","OBJECT_ID":"2022-019T","EPOCH":"2026-03-09T23:55:09.134400","MEAN_MOTION":15.69542894,"ECCENTRICITY":0.00024096,"INCLINATION":97.3665,"RA_OF_ASC_NODE":160.1413,"ARG_OF_PERICENTER":153.7003,"MEAN_ANOMALY":206.4382,"EPHEMERIS_TYPE":0,"CLASSIFICATION_TYPE":"U","NORAD_CAT_ID":51841,"ELEMENT_SET_NO":999,"REV_AT_EPOCH":22441,"BSTAR":0.0010852586,"MEAN_MOTION_DOT":0.00129444,"MEAN_MOTION_DDOT":0},{"OBJECT_NAME":"STARLINK-11234 [DTC]","OBJECT_ID":"2024-141C","EPOCH":"2026-03-09T07:03:31.870368","MEAN_MOTION":15.69710014,"ECCENTRICITY":0.00015893,"INCLINATION":53.1568,"RA_OF_ASC_NODE":88.0014,"ARG_OF_PERICENTER":123.2375,"MEAN_ANOMALY":236.8795,"EPHEMERIS_TYPE":0,"CLASSIFICATION_TYPE":"U","NORAD_CAT_ID":60400,"ELEMENT_SET_NO":999,"REV_AT_EPOCH":9163,"BSTAR":7.344283e-5,"MEAN_MOTION_DOT":8.317e-5,"MEAN_MOTION_DDOT":0}]
